ONEWEB-0376             
1 49302U 21090Z   23059.38312238  .00000091  00000+0  19538-3 0  9997
2 49302  87.9333 184.5090 0001309 107.0612 253.0665 13.19727205 67546
ONEWEB-0376             
1 49302U 21090Z   23059.38312238  .00000091  00000+0  19538-3 0  9997
2 49302  87.9333 184.5090 0001309 107.0612 253.0665 13.19727205 68828
ONEWEB-0376             
1 49302U 21090Z   23059.83802398  .00000032  00000+0  48674-4 0  9997
2 49302  87.9335 184.4193 0001311 107.1180 253.0096 13.19726122 67607
ONEWEB-0376             
1 49302U 21090Z   23060.89945801  .00000051  00000+0  96338-4 0  9993
2 49302  87.9333 184.2100 0001296 108.1669 251.9605 13.19726214 67746
ONEWEB-0376             
1 49302U 21090Z   23061.05109066  .00000125  00000+0  28085-3 0  9992
2 49302  87.9332 184.1799 0001304 108.6098 251.5176 13.19726923 69040
ONEWEB-0376             
1 49302U 21090Z   23061.80925822  .00000040  00000+0  67180-4 0  9997
2 49302  87.9329 184.0296 0001288 106.9889 253.1385 13.19726658 67860
ONEWEB-0376             
1 49302U 21090Z   23062.33997423  .00000077  00000+0  16078-3 0  9991
2 49302  87.9328 183.9245 0001300 107.1479 252.9796 13.19727592 67933
ONEWEB-0376             
1 49302U 21090Z   23062.33997423  .00000077  00000+0  16078-3 0  9991
2 49302  87.9328 183.9245 0001300 107.1479 252.9796 13.19727592 69216
ONEWEB-0376             
1 49302U 21090Z   23062.87069145  .00000118  00000+0  26371-3 0  9994
2 49302  87.9328 183.8196 0001293 107.9680 252.1594 13.19726435 68002
